[{"OBJECT_NAME":"FALCONSAT-6","OBJECT_ID":"2018-099BK","EPOCH":"2026-03-09T17:24:38.352096","MEAN_MOTION":15.26532865,"ECCENTRICITY":0.00143698,"INCLINATION":97.3865,"RA_OF_ASC_NODE":145.8165,"ARG_OF_PERICENTER":297.0944,"MEAN_ANOMALY":181.0714,"EPHEMERIS_TYPE":0,"CLASSIFICATION_TYPE":"U","NORAD_CAT_ID":43815,"ELEMENT_SET_NO":999,"REV_AT_EPOCH":39855,"BSTAR":0.00019476898,"MEAN_MOTION_DOT":5.029e-5,"MEAN_MOTION_DDOT":0},{"OBJECT_NAME":"STARLINK-32178","OBJECT_ID":"2024-141R","EPOCH":"2026-03-09T17:10:58.024704","MEAN_MOTION":15.30186514,"ECCENTRICITY":0.00010941,"INCLINATION":53.1592,"RA_OF_ASC_NODE":242.5346,"ARG_OF_PERICENTER":86.0908,"MEAN_ANOMALY":274.0218,"EPHEMERIS_TYPE":0,"CLASSIFICATION_TYPE":"U","NORAD_CAT_ID":60413,"ELEMENT_SET_NO":999,"REV_AT_EPOCH":8952,"BSTAR":-5.651873e-6,"MEAN_MOTION_DOT":-5.26e-6,"MEAN_MOTION_DDOT":0}]
